STARLINK-31236          
1 58841U 24017R   26068.55418836 -.00000766  00000+0 -13742-4 0  9993
2 58841  53.1617 205.0751 0001304  55.8381 304.2743 15.30186408120034
STARLINK-31704          
1 59586U 24076Y   26068.50002314  .00073760  00000+0  24083-2 0  9990
2 59586  42.9983 325.6544 0008002 238.8434  63.1356 15.30825628  5954
