OBJECT_NAME,OBJECT_ID,EPOCH,MEAN_MOTION,ECCENTRICITY,INCLINATION,RA_OF_ASC_NODE,ARG_OF_PERICENTER,MEAN_ANOMALY,EPHEMERIS_TYPE,CLASSIFICATION_TYPE,NORAD_CAT_ID,ELEMENT_SET_NO,REV_AT_EPOCH,BSTAR,MEAN_MOTION_DOT,MEAN_MOTION_DDOT
STARLINK-31236,2024-017R,2026-03-09T13:18:01.874304,15.30186408,.0001304,53.1617,205.0751,55.8381,304.2743,0,U,58841,999,12003,-.13742E-4,-.766E-5,0
STARLINK-31704,2024-076Y,2026-03-09T12:00:01.999296,15.30825628,.0008002,42.9983,325.6544,238.8434,63.1356,0,U,59586,999,595,.24083E-2,.7376E-3,0
